C/2019 F2 (ATLAS),e,19.2943,175.4108,11.6421,16.59646,0.0145774,0.86468747,22.4421,11/25.0/2023,2000,g 12.0,4.0
# From MPEC 2021-P47
A/2019 G2,e,159.2184,208.1676,82.6225,415.9566,0.0001162,0.99448013,0.0000,12/07.9440/2019,2000,g 16.5,2.0
# From MPEC 2022-VC5
A/2019 G3,e,156.8040,49.9124,161.8719,17.18415,0.0138360,0.83451328,25.1317,11/25.0/2023,2000,g 17.1,2.0
# From MPC114607
P/2019 GG21 (PANSTARRS),e,6.0867,340.5607,208.5797,7.467795,0.0482965,0.47178537,80.1807,11/25.0/2023,2000,g 12.0,4.0
# From MPEC 2022-M21
C/2019 H1 (NEOWISE),e,104.4125,269.2899,19.3170,242.9005,0.0002604,0.99241032,0.0000,04/27.8602/2019,2000,g 15.5,4.0
# From MPEC 2023-A50
C/2019 J1 (Lemmon),e,24.5341,98.1889,167.7031,67.81515,0.0017649,0.96334531,2.9877,11/25.0/2023,2000,g 12.0,4.0
# From MPEC 2021-R75
C/2019 J2 (Palomar),e,5.2604,25.5354,98.6808,161.0326,0.0004823,0.98930888,0.0000,07/20.3500/2019,2000,g 13.0,4.0
# From MPC117071
C/2019 J3 (ATLAS),h,08/02.4915/2019,131.3280,270.6273,16.5846,1.000508,2.368304,2000,13.5,4.0
# From MPEC 2022-M21
C/2019 JU6 (ATLAS),h,06/02.2999/2019,148.3305,21.7637,94.9594,1.000086,2.041191,2000,14.5,4.0
# From MPEC 2022-O08
C/2019 K1 (ATLAS),e,87.0310,73.3214,265.7352,6436,0.0000019,0.99968688,0.0000,02/12.3691/2020,2000,g 10.0,4.0
# From MPC119997
C/2019 K4 (Ye),e,105.2969,180.1727,139.9309,1454,0.0000178,0.99843730,0.0000,06/15.4114/2019,2000,g 12.5,4.0
# From MPEC 2021-P47
C/2019 K5 (Young),e,15.3144,177.1867,175.1354,169.5563,0.0004464,0.98793415,0.0000,06/22.7714/2019,2000,g 13.0,4.0
# From MPEC 2021-P47
C/2019 K6 (PANSTARRS),e,132.3795,43.0025,187.5460,1323,0.0000205,0.99703672,0.0000,05/19.7437/2020,2000,g 11.5,4.0
# From MPEC 2023-R20
C/2019 K7 (Smith),h,06/17.6628/2020,103.5192,307.9865,27.4096,1.000998,4.478266,2000,6.0,4.0
# From MPEC 2021-R75
C/2019 K8 (ATLAS),e,93.1146,291.0248,85.3616,2282,0.0000090,0.99860026,0.0000,07/21.4780/2019,2000,g 11.5,4.0
# From MPEC 2023-A50
C/2019 L1 (PANSTARRS),e,9.9762,254.4291,50.0618,9.836685,0.0319471,0.70500202,50.0949,11/25.0/2023,2000,g 13.5,4.0
# From MPC115886
C/2019 L2 (NEOWISE),e,152.2050,12.5521,18.8604,25.08509,0.0078448,0.93517388,13.3178,11/25.0/2023,2000,g 16.0,4.0
# From MPEC 2023-HD1
P/2019 LD2 (ATLAS),e,11.6116,179.5166,118.9040,5.207133,0.0829480,0.12675970,113.5953,11/25.0/2023,2000,g 12.0,4.0
# From MPEC 2023-R20
C/2019 L3 (ATLAS),h,01/09.7562/2022,48.3457,290.7601,171.6427,1.002364,3.554676,2000,4.5,4.0
# From MPEC 2020-K19
P/2019 LM4 (Palomar),e,36.4156,72.8379,68.2817,5.705373,0.0723233,0.58514855,117.2344,11/25.0/2023,2000,g  9.5,4.0
# From MPC118095
C/2019 LB7 (Kleyna),e,164.2902,3.9029,336.6326,34.78652,0.0048038,0.92830035,8.1888,11/25.0/2023,2000,g 17.0,4.0
# From MPEC 2022-O08
P/2019 M2 (ATLAS),e,12.2693,307.5899,332.5585,3.029466,0.1869197,0.64729252,302.3959,11/25.0/2023,2000,g 21.2,4.0
# From MPC118095
C/2019 M3 (ATLAS),e,99.5457,154.9552,87.9107,5186,0.0000026,0.99953265,0.0000,12/31.5487/2018,2000,g 12.2,4.0
# From MPEC 2023-JA2
C/2019 M4 (TESS),h,09/11.9890/2019,65.6786,52.6492,260.3734,1.003001,9.189386,2000,5.0,4.0
# From MPEC 2023-C45
C/2019 N1 (ATLAS),e,82.4388,13.5668,193.3922,1289,0.0000213,0.99867686,0.0000,12/01.0533/2020,2000,g  7.5,4.0
# From MPEC 2023-CD8
A/2019 N2,e,89.3630,276.1621,347.1759,1515,0.0000167,0.99871540,0.0000,08/22.6972/2019,2000,g 12.5,2.0
# From MPEC 2022-A21
C/2019 NJ3 (Lemmon),h,10/22.7676/2020,99.4020,142.4792,246.8962,1.001964,4.363558,2000,9.0,4.0
# From MPEC 2023-SQ0
A/2019 O2,e,93.3123,48.2577,129.6200,58.18940,0.0022204,0.83360152,0.5155,11/25.0/2023,2000,g  9.5,2.0
# From MPEC 2023-VM5
C/2019 O3 (Palomar),h,03/09.6576/2021,89.8144,300.4388,60.1337,1.004370,8.821366,2000,3.5,4.0
# From MPEC 2021-P47
A/2019 O4,e,15.0925,354.9278,61.9197,33.30585,0.0051277,0.89039500,7.0925,11/25.0/2023,2000,g 15.5,2.0
# From MPEC 2023-A50
C/2019 Q1 (Lemmon),h,07/21.1196/2020,155.7316,42.4561,56.2266,1.001326,5.004558,2000,8.5,4.0
# From MPC117072
A/2019 Q2,e,159.0218,188.0269,176.4332,58.20947,0.0022193,0.97828894,0.0000,07/22.3352/2019,2000,g 18.0,2.0
# From MPC117072
P/2019 S2 (PANSTARRS),e,10.4653,93.1879,217.1058,4.744346,0.0953761,0.20527211,165.7784,11/25.0/2023,2000,g 13.5,4.0
# From MPEC 2022-CN4
P/2019 S3 (PANSTARRS),e,8.6944,150.1718,213.0531,3.415233,0.1561614,0.47109332,242.1111,11/25.0/2023,2000,g 18.3,4.0
# From MPEC 2021-S45
C/2019 S4 (Lemmon),e,92.1002,63.1577,71.3707,237.6524,0.0002690,0.98551590,0.0000,04/08.2789/2020,2000,g 11.0,4.0
# From MPEC 2023-N01
A/2019 T1,e,120.8692,6.9447,91.0613,38.82776,0.0040737,0.88976415,4.2531,11/25.0/2023,2000,g 13.0,2.0
# From MPEC 2023-R20
C/2019 T2 (Lemmon),e,111.4540,155.6540,239.4296,5048,0.0000027,0.99947584,0.0000,04/22.6325/2021,2000,g  9.0,4.0
# From MPEC 2023-UR6
C/2019 T3 (ATLAS),e,121.8391,139.5324,112.4568,3415,0.0000049,0.99825706,0.0000,03/04.3011/2021,2000,g  6.8,4.0
# From MPEC 2023-W26
C/2019 T4 (ATLAS),e,53.6311,199.9376,351.1453,912.8418,0.0000357,0.99535403,0.0000,06/08.8000/2022,2000,g  5.0,4.0
# From MPEC 2021-P47
P/2019 T5 (ATLAS),e,33.4889,247.6155,189.5754,7.999562,0.0435617,0.80973876,68.6385,11/25.0/2023,2000,g 15.0,4.0
# From MPEC 2021-P47
P/2019 T6 (PANSTARRS),e,18.6976,71.2528,328.9907,5.439060,0.0776995,0.62308098,114.7699,11/25.0/2023,2000,g 15.5,4.0
# From MPC118096
P/2019 U4 (PANSTARRS),e,11.6990,200.0208,181.0322,3.519876,0.1492496,0.47602288,227.8875,11/25.0/2023,2000,g 19.0,4.0
# From MPEC 2023-W26
C/2019 U5 (PANSTARRS),h,03/29.7569/2023,113.5169,2.6354,181.4787,1.001172,3.624012,2000,4.5,4.0
# From MPEC 2022-H04
C/2019 U6 (Lemmon),e,60.9676,235.7853,329.5276,326.1761,0.0001673,0.99720375,0.0000,06/18.3137/2020,2000,g 10.0,4.0
# From MPEC 2022-N37
C/2019 V1 (Borisov),e,61.9246,83.1537,51.1684,1682,0.0000143,0.99816068,0.0000,07/16.6377/2020,2000,g 11.0,4.0
# From MPEC 2022-L66
P/2019 V2 (Groeller),e,11.8079,189.1809,335.6804,7.496823,0.0480162,0.33120992,54.4561,11/25.0/2023,2000,g 10.0,4.0
# From MPEC 2023-A50
P/2019 W1 (PANSTARRS),e,23.4757,35.3767,18.7649,4.548858,0.1015899,0.26726784,168.6434,11/25.0/2023,2000,g 12.9,4.0
# From MPEC 2021-P47
P/2019 X1 (Pruyne),e,10.2505,43.6793,36.8225,6.175084,0.0642303,0.30387242,101.8824,11/25.0/2023,2000,g 10.4,4.0
# From MPEC 2020-C98
P/2019 X2 (Pan-STARRS),e,15.8950,250.8390,213.4481,3.636298,0.1421396,0.49995889,205.5600,11/25.0/2023,2000,g 18.0,4.0
# From MPC119999
C/2019 Y1 (ATLAS),e,73.3833,31.5438,57.9144,86.96975,0.0012152,0.99047468,0.0000,03/16.2768/2020,2000,g 13.7,4.0
# From MPEC 2020-C98
P/2019 Y3 (Catalina),e,24.6037,139.3075,2.5841,3.013966,0.1883634,0.69114360,272.5591,11/25.0/2023,2000,g 18.5,4.0
# From MPEC 2022-YN2
C/2019 Y4 (ATLAS),e,45.1429,120.6968,177.4490,350.5409,0.0001502,0.99927001,0.0000,05/30.7058/2020,2000,g 11.8,6.0
# From MPEC 2020-L06
C/2019 Y4-A (ATLAS),h,05/30.7364/2020,45.5839,121.0597,177.2826,1.001416,0.254045,2000,11.6,6.0
# From MPEC 2023-J29
C/2019 Y4-B (ATLAS),h,05/30.7120/2020,45.2732,120.8034,177.3930,1.000014,0.255358,2000,12.1,6.0
# From MPEC 2020-L06
C/2019 Y4-C (ATLAS),h,05/30.6894/2020,45.3665,120.7865,177.3159,1.002142,0.255117,2000,12.7,6.0
# From MPEC 2020-L06
C/2019 Y4-D (ATLAS),e,45.4132,121.1577,177.4544,68.31490,0.0017455,0.99627560,0.0000,05/30.8133/2020,2000,g 12.5,6.0
# From MPEC 2023-A50
C/2019 Y5 (PANSTARRS),e,82.7618,51.7508,303.5872,732.9656,0.0000497,0.99328336,0.0000,08/17.6750/2019,2000,g 11.0,4.0
# From MPEC 2023-A50
A/2020 A1,e,149.0349,119.1684,302.4625,25.57835,0.0076190,0.93484645,11.0787,11/25.0/2023,2000,g 18.0,2.0
# From MPEC 2022-YN2
C/2020 A2 (Iwamoto),e,120.5912,286.2671,68.0580,1277,0.0000216,0.99923767,0.0000,01/08.3837/2020,2000,g 13.5,4.0
# From MPEC 2023-A50
C/2020 A3 (ATLAS),h,06/28.7797/2019,146.6553,120.8050,268.3336,1.000491,5.757452,2000,8.0,4.0
# From MPEC 2022-P91
P/2020 A4 (PANSTARRS-Lemmon),e,24.9913,312.3630,144.7752,8.195085,0.0420121,0.65422113,61.4492,11/25.0/2023,2000,g 15.0,4.0
# From MPEC 2020-N08
A/2020 B1,e,18.5210,309.9317,154.7284,51.53160,0.0026644,0.96624801,3.8083,11/25.0/2023,2000,g 21.0,2.0
# From MPEC 2020-HN5
C/2020 B2 (Lemmon),e,55.7531,354.2858,143.5984,67.66657,0.0017707,0.95921557,2.4761,11/25.0/2023,2000,g 10.0,4.0
# From MPEC 2022-N37
C/2020 B3 (Rankin),e,20.7089,185.8359,324.8864,936.1302,0.0000344,0.99643914,0.0000,10/19.6169/2019,2000,g 13.0,4.0
# From MPEC 2023-KD6
P/2020 B4 (Sheppard),e,11.6084,185.9771,342.0082,7.967060,0.0438285,0.19198976,32.2838,11/25.0/2023,2000,g 10.5,4.0
# From MPEC 2023-W26
C/2020 F2 (ATLAS),h,07/14.3186/2022,163.5892,250.2985,48.3071,1.005048,8.815820,2000,4.5,4.0
# From MPEC 2021-O56
C/2020 F3 (NEOWISE),e,29.1025,61.0834,37.3042,362.4901,0.0001428,0.99918931,0.0000,07/04.0399/2020,2000,g  7.5,5.2
# From MPEC 2023-W26
C/2020 F5 (MASTER),e,52.2062,350.5004,310.6811,172.6247,0.0004346,0.97494075,0.0000,03/17.2264/2021,2000,g  6.5,3.2
# From MPEC 2020-L06
C/2020 F6 (PANSTARRS),e,174.5830,207.9016,344.4989,387.3958,0.0001293,0.99095827,0.0000,04/11.5766/2020,2000,g 14.5,2.8
# From MPEC 2023-J95
C/2020 F7 (Lemmon),e,93.9547,321.8591,227.9472,561.2338,0.0000741,0.99049892,0.0000,11/13.6383/2021,2000,g  7.0,4.0
# From MPEC 2023-J29
C/2020 F8 (SWAN),h,05/27.0521/2020,110.5973,259.8501,68.0756,1.000163,0.429767,2000,10.0,4.0
# From MPEC 2020-L06
P/2020 G1 (Pimentel),e,18.5098,240.1075,207.6160,3.607951,0.1438180,0.86057436,193.7304,11/25.0/2023,2000,g 17.0,4.0
# From MPEC 2022-YB4
C/2020 H2 (Pruyne),e,124.8646,277.6691,26.6441,187.1801,0.0003849,0.99556424,0.0000,04/27.7893/2020,2000,g 14.0,3.2
# From MPEC 2020-HM1
C/2020 H3 (Wierzchos),p,06/05.7162/2020,62.5292,30.4456,2.300288,270.6227,2000,13.5,4.0
# From MPEC 2020-L06
C/2020 H4 (Leonard),e,84.4992,307.6224,117.5129,47.82375,0.0029802,0.98066844,0.0000,08/29.6246/2020,2000,g 15.0,3.2
# From MPEC 2023-VM5
C/2020 H5 (Robinson),e,70.2561,210.6276,326.3122,4222,0.0000036,0.99778792,0.0000,12/10.3898/2020,2000,g  5.0,4.0
# From MPEC 2023-SQ0
C/2020 H6 (ATLAS),e,79.9779,213.7207,20.2745,4439,0.0000033,0.99894094,0.0000,09/30.4165/2021,2000,g  8.0,3.2
# From MPEC 2020-KB7
